STARLINK-2022           
1 47643U 21012Z   23216.38971365  .00002998  00000+0  22016-3 0  9997
2 47643  53.0557 348.7074 0000933  87.4819 272.6277 15.06381424136812
